ONEWEB-0656             
1 55817U 23029X   25069.87556323 -.00000103  00000+0 -28519-3 0  9996
2 55817  87.9333   6.6187 0001243  82.8848 277.2427 13.20772332 99994
ONEWEB-0657             
1 55818U 23029Y   25070.13565362  .00000055  00000+0  10466-3 0  9997
2 55818  87.9206  37.0188 0001327  62.7358 297.3910 13.19724621 98512
ONEWEB-0658             
1 55819U 23029Z   25069.90346538  .00000057  00000+0  11053-3 0  9998
2 55819  87.9205  36.9988 0002327  72.9132 287.2256 13.19725039 97819
ONEWEB-0660             
1 55820U 23029AA  25069.87383100 -.00000129  00000+0 -38185-3 0  9999
2 55820  87.9067  21.8022 0002262  84.3524 275.7863 13.14503181 98532
ONEWEB-0661             
1 55821U 23029AB  25070.13705219  .00000004  00000+0 -24986-4 0  9996
2 55821  87.9065  21.8196 0002243  87.6232 272.5154 13.14506132 99240
ONEWEB-0662             
1 55822U 23029AC  25070.09582153  .00000111  00000+0  26546-3 0  9993
2 55822  87.9068  21.8349 0002289  82.8185 277.3205 13.14505953 99305
ONEWEB-0663             
1 55823U 23029AD  25069.25520728  .00007578  00000+0  18561-1 0  9990
2 55823  87.9360   6.7958 0001407  81.6780 278.4513 13.20881678 99906
ONEWEB-0664             
1 55824U 23029AE  25069.86294052 -.00000030  00000+0 -10665-3 0  9993
2 55824  87.9333   6.6969 0001925  94.5352 265.6001 13.20771219100677
